IONOSFERA-M 3           
1 64876U 25155A   26061.88768956  .00000090  00000+0  60739-4 0  9998
2 64876  98.5910  26.5378 0001865 128.9368 231.1976 14.21464507 31303
IONOSFERA-M 4           
1 64877U 25155B   26061.85228788  .00000106  00000+0  68022-4 0  9991
2 64877  98.5907  26.4219 0001524 109.8890 250.2452 14.21466188 31299
MICROCARB               
1 64899U 25156A   26061.78674269  .00000833  00000+0  13982-3 0  9998
2 64899  97.9899 140.8082 0015092 250.4791 109.4786 14.72206505 32313
CO3D 3                  
1 64900U 25156B   26061.81800720  .00006592  00000+0  30726-3 0  9991
2 64900  97.4333 142.0380 0001431 160.8841 199.2448 15.20213130 33376
CO3D 4                  
1 64901U 25156C   26061.29158243  .00001237  00000+0  60250-4 0  9997
2 64901  97.4334 141.5187 0000254 280.3117  79.8089 15.20203154 33293
CO3D 2                  
1 64902U 25156D   26061.85064397  .00006793  00000+0  31660-3 0  9990
2 64902  97.4333 141.9686 0001296 135.5966 224.5373 15.20205030 33370
CO3D 1                  
1 64903U 25156E   26061.85078972  .00006140  00000+0  28661-3 0  9998
2 64903  97.4328 141.9685 0001072 137.1138 223.0181 15.20191150 33373
SENTINEL-6B             
1 66514U 25264A   26061.51219847 -.00000065  00000+0 -19379-4 0  9998
2 66514  66.0444 356.7442 0007993 270.7177  89.2922 12.80929292 13503
CSG-3                   
1 67304U 26001A   26061.86993683  .00000560  00000+0  76868-4 0  9995
2 67304  97.8861 247.0062 0001367  90.0001 270.1369 14.82163934  8714
