[{"OBJECT_NAME":"IONOSFERA-M 3","OBJECT_ID":"2025-155A","EPOCH":"2026-03-02T21:18:16.377984","MEAN_MOTION":14.21464507,"ECCENTRICITY":0.0001865,"INCLINATION":98.591,"RA_OF_ASC_NODE":26.5378,"ARG_OF_PERICENTER":128.9368,"MEAN_ANOMALY":231.1976,"EPHEMERIS_TYPE":0,"CLASSIFICATION_TYPE":"U","NORAD_CAT_ID":64876,"ELEMENT_SET_NO":999,"REV_AT_EPOCH":3130,"BSTAR":6.0739e-5,"MEAN_MOTION_DOT":9.0e-7,"MEAN_MOTION_DDOT":0},{"OBJECT_NAME":"IONOSFERA-M 4","OBJECT_ID":"2025-155B","EPOCH":"2026-03-02T20:27:17.672832","MEAN_MOTION":14.21466188,"ECCENTRICITY":0.0001524,"INCLINATION":98.5907,"RA_OF_ASC_NODE":26.4219,"ARG_OF_PERICENTER":109.889,"MEAN_ANOMALY":250.2452,"EPHEMERIS_TYPE":0,"CLASSIFICATION_TYPE":"U","NORAD_CAT_ID":64877,"ELEMENT_SET_NO":999,"REV_AT_EPOCH":3129,"BSTAR":6.8022e-5,"MEAN_MOTION_DOT":1.06e-6,"MEAN_MOTION_DDOT":0},{"OBJECT_NAME":"MICROCARB","OBJECT_ID":"2025-156A","EPOCH":"2026-03-02T18:52:54.568416","MEAN_MOTION":14.72206505,"ECCENTRICITY":0.0015092,"INCLINATION":97.9899,"RA_OF_ASC_NODE":140.8082,"ARG_OF_PERICENTER":250.4791,"MEAN_ANOMALY":109.4786,"EPHEMERIS_TYPE":0,"CLASSIFICATION_TYPE":"U","NORAD_CAT_ID":64899,"ELEMENT_SET_NO":999,"REV_AT_EPOCH":3231,"BSTAR":0.00013982,"MEAN_MOTION_DOT":8.33e-6,"MEAN_MOTION_DDOT":0},{"OBJECT_NAME":"CO3D 3","OBJECT_ID":"2025-156B","EPOCH":"2026-03-02T19:37:55.822080","MEAN_MOTION":15.2021313,"ECCENTRICITY":0.0001431,"INCLINATION":97.4333,"RA_OF_ASC_NODE":142.038,"ARG_OF_PERICENTER":160.8841,"MEAN_ANOMALY":199.2448,"EPHEMERIS_TYPE":0,"CLASSIFICATION_TYPE":"U","NORAD_CAT_ID":64900,"ELEMENT_SET_NO":999,"REV_AT_EPOCH":3337,"BSTAR":0.00030726,"MEAN_MOTION_DOT":6.592e-5,"MEAN_MOTION_DDOT":0},{"OBJECT_NAME":"CO3D 4","OBJECT_ID":"2025-156C","EPOCH":"2026-03-02T06:59:52.721952","MEAN_MOTION":15.20203154,"ECCENTRICITY":2.545e-5,"INCLINATION":97.4334,"RA_OF_ASC_NODE":141.5187,"ARG_OF_PERICENTER":280.3117,"MEAN_ANOMALY":79.8089,"EPHEMERIS_TYPE":0,"CLASSIFICATION_TYPE":"U","NORAD_CAT_ID":64901,"ELEMENT_SET_NO":999,"REV_AT_EPOCH":3329,"BSTAR":6.0250155e-5,"MEAN_MOTION_DOT":1.237e-5,"MEAN_MOTION_DDOT":0},{"OBJECT_NAME":"CO3D 2","OBJECT_ID":"2025-156D","EPOCH":"2026-03-02T20:24:55.639008","MEAN_MOTION":15.2020503,"ECCENTRICITY":0.0001296,"INCLINATION":97.4333,"RA_OF_ASC_NODE":141.9686,"ARG_OF_PERICENTER":135.5966,"MEAN_ANOMALY":224.5373,"EPHEMERIS_TYPE":0,"CLASSIFICATION_TYPE":"U","NORAD_CAT_ID":64902,"ELEMENT_SET_NO":999,"REV_AT_EPOCH":3337,"BSTAR":0.0003166,"MEAN_MOTION_DOT":6.793e-5,"MEAN_MOTION_DDOT":0},{"OBJECT_NAME":"CO3D 1","OBJECT_ID":"2025-156E","EPOCH":"2026-03-02T20:25:08.231808","MEAN_MOTION":15.2019115,"ECCENTRICITY":0.0001072,"INCLINATION":97.4328,"RA_OF_ASC_NODE":141.9685,"ARG_OF_PERICENTER":137.1138,"MEAN_ANOMALY":223.0181,"EPHEMERIS_TYPE":0,"CLASSIFICATION_TYPE":"U","NORAD_CAT_ID":64903,"ELEMENT_SET_NO":999,"REV_AT_EPOCH":3337,"BSTAR":0.00028661,"MEAN_MOTION_DOT":6.14e-5,"MEAN_MOTION_DDOT":0},{"OBJECT_NAME":"SENTINEL-6B","OBJECT_ID":"2025-264A","EPOCH":"2026-03-02T12:17:33.947808","MEAN_MOTION":12.80929292,"ECCENTRICITY":0.0007993,"INCLINATION":66.0444,"RA_OF_ASC_NODE":356.7442,"ARG_OF_PERICENTER":270.7177,"MEAN_ANOMALY":89.2922,"EPHEMERIS_TYPE":0,"CLASSIFICATION_TYPE":"U","NORAD_CAT_ID":66514,"ELEMENT_SET_NO":999,"REV_AT_EPOCH":1350,"BSTAR":-1.9379e-5,"MEAN_MOTION_DOT":-6.5e-7,"MEAN_MOTION_DDOT":0},{"OBJECT_NAME":"CSG-3","OBJECT_ID":"2026-001A","EPOCH":"2026-03-02T20:52:42.542112","MEAN_MOTION":14.82163934,"ECCENTRICITY":0.0001367,"INCLINATION":97.8861,"RA_OF_ASC_NODE":247.0062,"ARG_OF_PERICENTER":90.0001,"MEAN_ANOMALY":270.1369,"EPHEMERIS_TYPE":0,"CLASSIFICATION_TYPE":"U","NORAD_CAT_ID":67304,"ELEMENT_SET_NO":999,"REV_AT_EPOCH":871,"BSTAR":7.6868e-5,"MEAN_MOTION_DOT":5.6e-6,"MEAN_MOTION_DDOT":0}]
